ONEWEB-0313             
1 49099U 21075AA  26178.51914802  .00000074  00000+0  15639-3 0  9997
2 49099  87.9128   3.8229 0001961  86.8081 273.3275 13.17649498234954
ONEWEB-0314             
1 49100U 21075AB  26178.48554322  .00000051  00000+0  97290-4 0  9992
2 49100  87.9140   3.8034 0002244  87.5884 272.5504 13.17649522234920
ONEWEB-0315             
1 49101U 21075AC  26178.50051182 -.00000377  00000+0 -10829-2 0  9996
2 49101  87.8952 348.5933 0001914  80.8433 279.2912 13.12442311236524
ONEWEB-0316             
1 49102U 21075AD  26178.47799434 -.00000696  00000+0 -17985-2 0  9996
2 49102  87.9176 333.4082 0001841  95.9966 264.1376 13.18679870238560
ONEWEB-0317             
1 49103U 21075AE  26178.50390128 -.00000531  00000+0 -15125-2 0  9990
2 49103  87.8954 348.6165 0001935 114.9782 245.1547 13.12443234236548
ONEWEB-0318             
1 49104U 21075AF  26178.47463854  .00001466  00000+0  36860-2 0  9999
2 49104  87.9176 333.4109 0001842  89.3204 270.8140 13.18674522238523
ONEWEB-0319             
1 49105U 21075AG  26178.50072022  .00000067  00000+0  14001-3 0  9997
2 49105  87.9131   3.8158 0001979  74.3233 285.8117 13.17650057234964
ONEWEB-0323             
1 49106U 21075AH  26178.48527112 -.00000053  00000+0 -18270-3 0  9999
2 49106  87.8953 348.6014 0002108  78.5771 281.5594 13.12440999235909
ONEWEB-0329             
1 49107U 21075AJ  26178.50916044  .00000115  00000+0  26412-3 0  9993
2 49107  87.9133   3.8149 0002020  88.7742 271.3621 13.17649852234949
ONEWEB-0330             
1 49108U 21075AK  26178.52322844  .00000078  00000+0  16337-3 0  9998
2 49108  87.9134   3.8281 0002110  92.3099 267.8275 13.19183780234988
ONEWEB-0292             
1 49186U 21083A   26178.44952723  .00001212  00000+0  32843-2 0  9999
2 49186  87.8961 318.1945 0001800  93.2741 266.8594 13.13464603232272
ONEWEB-0303             
1 49187U 21083B   26178.47126962  .00000028  00000+0  39242-4 0  9997
2 49187  87.9174 333.4100 0001890  89.6822 270.4527 13.18687748231336
ONEWEB-0306             
1 49188U 21083C   26178.46114603  .00000060  00000+0  11819-3 0  9991
2 49188  87.9180 333.4003 0001881 101.9739 258.1604 13.18688050231371
ONEWEB-0307             
1 49189U 21083D   26178.36743120  .00000277  00000+0  72306-3 0  9991
2 49189  87.8961 318.2083 0001926  94.4049 265.7300 13.13471210232266
ONEWEB-0320             
1 49190U 21083E   26178.40550926 -.00000018  00000+0 -78845-4 0  9998
2 49190  87.9168 333.4285 0001826  96.3956 263.7384 13.18686864231322
ONEWEB-0321             
1 49191U 21083F   26178.50396280  .00000067  00000+0  13396-3 0  9992
2 49191  87.9194 272.3790 0002001 108.1488 251.9863 13.20773484238193
ONEWEB-0322             
1 49192U 21083G   26178.36320551  .00000193  00000+0  49220-3 0  9990
2 49192  87.8961 318.2094 0001570 110.1518 249.9780 13.13471354232258
ONEWEB-0324             
1 49193U 21083H   26178.45441514  .00000065  00000+0  13307-3 0  9999
2 49193  87.9180 333.4069 0002017  97.1034 263.0328 13.18685626231357
ONEWEB-0325             
1 49194U 21083J   26178.45778656  .00000057  00000+0  11260-3 0  9997
2 49194  87.9168 333.4137 0001770  94.0251 266.1083 13.18686318231364
ONEWEB-0326             
1 49195U 21083K   26178.47310698  .00000084  00000+0  18075-3 0  9999
2 49195  87.9178 333.4094 0001862  86.4478 273.6867 13.18685403231352
ONEWEB-0327             
1 49196U 21083L   26178.47282668  .00000039  00000+0  66198-4 0  9995
2 49196  87.9169 333.4130 0001715  82.6333 277.4994 13.18685509231371
ONEWEB-0328             
1 49197U 21083M   26178.42921542 -.00000132  00000+0 -39642-3 0  9991
2 49197  87.8970 318.1702 0002012  98.9388 261.1969 13.13471408232242
ONEWEB-0331             
1 49198U 21083N   26178.46620410  .00000022  00000+0  23393-4 0  9999
2 49198  87.9179 333.4047 0001962  85.0800 275.0556 13.18687324231365
ONEWEB-0333             
1 49199U 21083P   26178.42413458 -.00000238  00000+0 -68563-3 0  9996
2 49199  87.8960 318.1967 0001787  97.5371 262.5961 13.13471246232259
ONEWEB-0334             
1 49200U 21083Q   26178.51826669  .00000025  00000+0  30497-4 0  9999
2 49200  87.9193 272.3862 0001748 123.9590 236.1709 13.20774203238159
ONEWEB-0335             
1 49201U 21083R   26178.41905095 -.00000236  00000+0 -68140-3 0  9991
2 49201  87.8962 318.1948 0001939  92.9311 267.2040 13.13471835232261
ONEWEB-0336             
1 49202U 21083S   26178.39029301  .00000191  00000+0  48701-3 0  9995
2 49202  87.8960 318.1958 0002007  91.0011 269.1348 13.13472396232259
ONEWEB-0337             
1 49203U 21083T   26178.40030022 -.00000035  00000+0 -12977-3 0  9995
2 49203  87.8958 318.1996 0002091  97.3793 262.7574 13.13470125232256
ONEWEB-0338             
1 49204U 21083U   26178.49552140  .00000018  00000+0  13427-4 0  9996
2 49204  87.9186 272.3939 0001815 106.7222 253.4111 13.20775163238173
ONEWEB-0339             
1 49205U 21083V   26178.40889227 -.00000232  00000+0 -66949-3 0  9993
2 49205  87.8961 318.1906 0001825 107.6582 252.4746 13.13470985232237
ONEWEB-0340             
1 49206U 21083W   26178.45273234  .00000084  00000+0  18149-3 0  9996
2 49206  87.9179 333.4132 0001977  91.3876 268.7483 13.18687036231323
