OBJECT_NAME,OBJECT_ID,EPOCH,MEAN_MOTION,ECCENTRICITY,INCLINATION,RA_OF_ASC_NODE,ARG_OF_PERICENTER,MEAN_ANOMALY,EPHEMERIS_TYPE,CLASSIFICATION_TYPE,NORAD_CAT_ID,ELEMENT_SET_NO,REV_AT_EPOCH,BSTAR,MEAN_MOTION_DOT,MEAN_MOTION_DDOT
ONEWEB-0313,2021-075AA,2026-06-27T12:27:34.388928,13.17649498,.0001961,87.9128,3.8229,86.8081,273.3275,0,U,49099,999,23495,.15639E-3,.74E-6,0
ONEWEB-0314,2021-075AB,2026-06-27T11:39:10.934208,13.17649522,.0002244,87.9140,3.8034,87.5884,272.5504,0,U,49100,999,23492,.9729E-4,.51E-6,0
ONEWEB-0315,2021-075AC,2026-06-27T12:00:44.221248,13.12442311,.0001914,87.8952,348.5933,80.8433,279.2912,0,U,49101,999,23652,-.10829E-2,-.377E-5,0
ONEWEB-0316,2021-075AD,2026-06-27T11:28:18.710976,13.18679870,.0001841,87.9176,333.4082,95.9966,264.1376,0,U,49102,999,23856,-.17985E-2,-.696E-5,0
ONEWEB-0317,2021-075AE,2026-06-27T12:05:37.070592,13.12443234,.0001935,87.8954,348.6165,114.9782,245.1547,0,U,49103,999,23654,-.15125E-2,-.531E-5,0
ONEWEB-0318,2021-075AF,2026-06-27T11:23:28.769856,13.18674522,.0001842,87.9176,333.4109,89.3204,270.8140,0,U,49104,999,23852,.3686E-2,.1466E-4,0
ONEWEB-0319,2021-075AG,2026-06-27T12:01:02.227008,13.17650057,.0001979,87.9131,3.8158,74.3233,285.8117,0,U,49105,999,23496,.14001E-3,.67E-6,0
ONEWEB-0323,2021-075AH,2026-06-27T11:38:47.424768,13.12440999,.0002108,87.8953,348.6014,78.5771,281.5594,0,U,49106,999,23590,-.1827E-3,-.53E-6,0
ONEWEB-0329,2021-075AJ,2026-06-27T12:13:11.462016,13.17649852,.000202,87.9133,3.8149,88.7742,271.3621,0,U,49107,999,23494,.26412E-3,.115E-5,0
ONEWEB-0330,2021-075AK,2026-06-27T12:33:26.937216,13.19183780,.000211,87.9134,3.8281,92.3099,267.8275,0,U,49108,999,23498,.16337E-3,.78E-6,0
ONEWEB-0292,2021-083A,2026-06-27T10:47:19.152672,13.13464603,.00018,87.8961,318.1945,93.2741,266.8594,0,U,49186,999,23227,.32843E-2,.1212E-4,0
ONEWEB-0303,2021-083B,2026-06-27T11:18:37.695168,13.18687748,.000189,87.9174,333.4100,89.6822,270.4527,0,U,49187,999,23133,.39242E-4,.28E-6,0
ONEWEB-0306,2021-083C,2026-06-27T11:04:03.016992,13.18688050,.0001881,87.9180,333.4003,101.9739,258.1604,0,U,49188,999,23137,.11819E-3,.6E-6,0
ONEWEB-0307,2021-083D,2026-06-27T08:49:06.055680,13.13471210,.0001926,87.8961,318.2083,94.4049,265.7300,0,U,49189,999,23226,.72306E-3,.277E-5,0
ONEWEB-0320,2021-083E,2026-06-27T09:43:56.000064,13.18686864,.0001826,87.9168,333.4285,96.3956,263.7384,0,U,49190,999,23132,-.78845E-4,-.18E-6,0
ONEWEB-0321,2021-083F,2026-06-27T12:05:42.385920,13.20773484,.0002001,87.9194,272.3790,108.1488,251.9863,0,U,49191,999,23819,.13396E-3,.67E-6,0
ONEWEB-0322,2021-083G,2026-06-27T08:43:00.956064,13.13471354,.000157,87.8961,318.2094,110.1518,249.9780,0,U,49192,999,23225,.4922E-3,.193E-5,0
ONEWEB-0324,2021-083H,2026-06-27T10:54:21.468096,13.18685626,.0002017,87.9180,333.4069,97.1034,263.0328,0,U,49193,999,23135,.13307E-3,.65E-6,0
ONEWEB-0325,2021-083J,2026-06-27T10:59:12.758784,13.18686318,.000177,87.9168,333.4137,94.0251,266.1083,0,U,49194,999,23136,.1126E-3,.57E-6,0
ONEWEB-0326,2021-083K,2026-06-27T11:21:16.443072,13.18685403,.0001862,87.9178,333.4094,86.4478,273.6867,0,U,49195,999,23135,.18075E-3,.84E-6,0
ONEWEB-0327,2021-083L,2026-06-27T11:20:52.225152,13.18685509,.0001715,87.9169,333.4130,82.6333,277.4994,0,U,49196,999,23137,.66198E-4,.39E-6,0
ONEWEB-0328,2021-083M,2026-06-27T10:18:04.212288,13.13471408,.0002012,87.8970,318.1702,98.9388,261.1969,0,U,49197,999,23224,-.39642E-3,-.132E-5,0
ONEWEB-0331,2021-083N,2026-06-27T11:11:20.034240,13.18687324,.0001962,87.9179,333.4047,85.0800,275.0556,0,U,49198,999,23136,.23393E-4,.22E-6,0
ONEWEB-0333,2021-083P,2026-06-27T10:10:45.227712,13.13471246,.0001787,87.8960,318.1967,97.5371,262.5961,0,U,49199,999,23225,-.68563E-3,-.238E-5,0
ONEWEB-0334,2021-083Q,2026-06-27T12:26:18.242016,13.20774203,.0001748,87.9193,272.3862,123.9590,236.1709,0,U,49200,999,23815,.30497E-4,.25E-6,0
ONEWEB-0335,2021-083R,2026-06-27T10:03:26.002080,13.13471835,.0001939,87.8962,318.1948,92.9311,267.2040,0,U,49201,999,23226,-.6814E-3,-.236E-5,0
ONEWEB-0336,2021-083S,2026-06-27T09:22:01.316064,13.13472396,.0002007,87.8960,318.1958,91.0011,269.1348,0,U,49202,999,23225,.48701E-3,.191E-5,0
ONEWEB-0337,2021-083T,2026-06-27T09:36:25.939008,13.13470125,.0002091,87.8958,318.1996,97.3793,262.7574,0,U,49203,999,23225,-.12977E-3,-.35E-6,0
ONEWEB-0338,2021-083U,2026-06-27T11:53:33.048960,13.20775163,.0001815,87.9186,272.3939,106.7222,253.4111,0,U,49204,999,23817,.13427E-4,.18E-6,0
ONEWEB-0339,2021-083V,2026-06-27T09:48:48.292128,13.13470985,.0001825,87.8961,318.1906,107.6582,252.4746,0,U,49205,999,23223,-.66949E-3,-.232E-5,0
ONEWEB-0340,2021-083W,2026-06-27T10:51:56.074176,13.18687036,.0001977,87.9179,333.4132,91.3876,268.7483,0,U,49206,999,23132,.18149E-3,.84E-6,0
